BRITE-AUSTRIA           
1 39091U 13009F   26186.94444142  .00000200  00000+0  82602-4 0  9993
2 39091  98.4004   5.9166 0010188 177.3840 182.7402 14.36549906699740
BRITE-CA1 (TORONTO)     
1 40020U 14033L   26187.26598267  .00001100  00000+0  17255-3 0  9990
2 40020  97.9762 315.8448 0077807 215.0117 144.5962 14.72710728645024
CUTE-1 (CO-55)          
1 27844U 03031E   26187.00406878  .00000312  00000+0  15365-3 0  9997
2 27844  98.6737 195.3263 0010573 126.4787 233.7367 14.24347598194357
CUBESAT XI-IV (CO-57)   
1 27848U 03031J   26187.00197818  .00000261  00000+0  13358-3 0  9995
2 27848  98.6770 195.0217 0010158 143.6881 216.4988 14.23631104194051
CUBESAT XI-V            
1 28895U 05043F   26186.40811405  .00001902  00000+0  30608-3 0  9991
2 28895  98.3005 342.4147 0014841 144.0208 216.2000 14.72685124104434
CUTE-1.7+APD II (CO-65) 
1 32785U 08021C   26187.20679258  .00005294  00000+0  33294-3 0  9992
2 32785  97.8291 169.0238 0007675 336.2233  23.8639 15.09646239988066
CANX-2                  
1 32790U 08021H   26186.89603938  .00005357  00000+0  37398-3 0  9993
2 32790  97.8645 167.0391 0009781 349.6431  10.4592 15.05759266987623
SEEDS II (CO-66)        
1 32791U 08021J   26186.93353014  .00020454  00000+0  63447-3 0  9995
2 32791  97.7526 185.7350 0001925 178.5617 181.5631 15.33438774990166
SWISSCUBE               
1 35932U 09051B   26187.18848275  .00001094  00000+0  22538-3 0  9990
2 35932  98.4019  95.4068 0007338 143.7064 216.4636 14.62519394891935
BEESAT-1                
1 35933U 09051C   26187.20783711  .00000913  00000+0  19294-3 0  9991
2 35933  98.3947  95.0219 0005561 154.2059 205.9420 14.61752368891962
ITUPSAT1                
1 35935U 09051E   26187.21539757  .00000833  00000+0  18182-3 0  9999
2 35935  98.4029  94.2012 0007432 169.5257 190.6099 14.60469979891511
TISAT 1                 
1 36799U 10035E   26186.79672831  .00026838  00000+0  85640-3 0  9991
2 36799  98.0710 135.0077 0004135 137.6093 222.5467 15.32473355870557
AEROCUBE 4.5A           
1 38767U 12048K   26180.81601320  .02026816  74244-5  11805-2 0  9992
2 38767  64.6148 340.0554 0018867 267.4936  92.4076 16.17962819374686
STRAND-1                
1 39090U 13009E   26186.43609853  .00000394  00000+0  14690-3 0  9993
2 39090  98.3930   6.2219 0008827 168.5564 191.5825 14.37175147699684
NEE-01 PEGASO           
1 39151U 13018B   26186.21860112  .00004574  00000+0  43662-3 0  9999
2 39151  98.1251 330.9673 0013941 104.1848 256.0920 14.93758890713393
POPACS 2                
1 39269U 13055E   26185.82184007  .00027129 -75250-6  44971-3 0  9990
2 39269  80.9915 124.0034 0415832 137.1605 226.2823 14.91720341665849
POPACS 3                
1 39270U 13055F   26186.80704842  .00012195  00000+0  28863-3 0  9998
2 39270  80.9990 208.9935 0549957  13.3120 348.1928 14.56491356641261
ZACUBE-1 (TSHEPISOSAT)  
1 39417U 13066B   26186.87028241  .00003914  00000+0  30309-3 0  9999
2 39417  97.8029 149.3009 0043335 185.1582 174.9202 15.01298892683530
WNISAT-1                
1 39423U 13066H   26186.94591164  .00001456  00000+0  27193-3 0  9999
2 39423  97.7225 334.7728 0163224 172.3324 188.0430 14.58105275669462
TRITON-1                
1 39427U 13066M   26187.27164434  .00001028  00000+0  12824-3 0  9996
2 39427  97.8225  96.6432 0089861 171.1126 189.1705 14.81773600676918
GOMX-1                  
1 39430U 13066Q   26187.31964936  .00002752  00000+0  41580-3 0  9996
2 39430  97.6472  26.5744 0129064  16.6920 343.8475 14.69528945672721
CUBEBUG-2 (LO-74)       
1 39440U 13066AA  26187.28715879  .00004323  00000+0  39945-3 0  9991
2 39440  97.8914 136.3484 0056285 325.7872  33.9725 14.93930627679846
NEE-02 KRYSAOR          
1 39441U 13066AB  26187.25670692  .00002860  00000+0  31544-3 0  9993
2 39441  97.8890 126.3363 0066249   8.6556 351.5786 14.86713200679037
FUNCUBE-1 (AO-73)       
1 39444U 13066AE  26186.88139067  .00008644  00000+0  53111-3 0  9990
2 39444  97.8282 158.7205 0037438 138.2012 222.2087 15.09732686682480
UWE-3                   
1 39446U 13066AG  26186.86326104  .00003804  00000+0  32715-3 0  9990
2 39446  97.8703 143.0659 0047415 257.1230 102.4692 14.97161754680374
DUCHIFAT-1              
1 40021U 14033M   26187.12016923  .00142130  00000+0  12107-2 0  9999
2 40021  98.0430 249.0015 0000989 273.0857  87.0289 15.69113634658712
NANOSATC-BR1            
1 40024U 14033Q   26187.08465500  .00019818  00000+0  64072-3 0  9991
2 40024  98.0711 221.1547 0005274 118.1118 242.0656 15.32115845656871
QB50P1                  
1 40025U 14033R   26186.99754083  .00009146  00000+0  44555-3 0  9995
2 40025  98.0967 199.4657 0009703 152.3577 207.8173 15.18568137655887
QB50P2                  
1 40032U 14033Y   26186.98636344  .00008210  00000+0  43778-3 0  9998
2 40032  98.0762 185.0401 0009340 109.2682 250.9560 15.15424922655510
PERSEUS-M2              
1 40037U 14033AD  26187.26537330  .00002562  00000+0  23623-3 0  9991
2 40037  97.9967 138.1957 0010662 232.9589 127.0657 14.95569705653632
